0 FENGYUN 1C DEB
1 33710U 99025DGX 13281.10976668  .00000609  00000-0  43784-3 0  3210
2 33710 099.2071 332.5557 0060424 274.6094 084.8075 14.00091582295033
0 FENGYUN 1C DEB
1 33710U 99025DGX 13291.97204320  .00001022  00000-0  71234-3 0  3227
2 33710 099.1940 343.4646 0061400 242.6172 116.8736 14.00114837296551
0 FENGYUN 1C DEB
1 33710U 99025DGX 13294.11589610  .00001067  00000-0  74272-3 0  3239
2 33710 099.1935 345.6203 0061605 236.6720 122.8536 14.00120382296857
